STARLINK-34585          
1 64779U 25147AA  26179.92445086  .00030218  00000+0  90183-3 0  9992
2 64779  53.1599  84.5622 0001265  87.2577 272.8570 15.34401278 55752
STARLINK-34491          
1 64780U 25147AB  26179.94961485  .00023146  00000+0  69436-3 0  9991
2 64780  53.1590  84.0068 0000945  91.9525 268.1586 15.34385709 55815
STARLINK-34582          
1 64781U 25147AC  26179.94329727  .00039213  00000+0  11649-2 0  9993
2 64781  53.1592  83.9662 0001039  85.2281 274.8840 15.34421847 55749
STARLINK-34482          
1 64782U 25147AD  26179.91814103  .00023486  00000+0  70429-3 0  9995
2 64782  53.1606  84.5211 0001324  98.3626 261.7527 15.34390353 55843
DROR 1                  
1 64784U 25148A   26180.37382256 -.00000023  00000+0  00000+0 0  9996
2 64784   0.0172   4.4162 0002660  36.4064   7.1902  1.00272193  3417
STARLINK-34629          
1 64790U 25150A   26180.53937839  .00002736  00000+0  23691-3 0  9994
2 64790  69.9993 212.3308 0003977 270.9417  89.1287 14.98340020 53271
STARLINK-34697          
1 64791U 25150B   26180.47663880  .00003383  00000+0  29120-3 0  9992
2 64791  69.9994 212.5072 0004118 266.8252  93.2436 14.98321398 53260
STARLINK-34632          
1 64792U 25150C   26180.50183397  .00002394  00000+0  20833-3 0  9990
2 64792  69.9996 212.4767 0004146 266.8470  93.2215 14.98335110 53268
STARLINK-34693          
1 64793U 25150D   26180.52271192  .00003556  00000+0  30561-3 0  9994
2 64793  69.9995 212.6647 0003888 264.8186  95.2530 14.98337350 53261
STARLINK-34666          
1 64794U 25150E   26180.52254749  .00002581  00000+0  22396-3 0  9998
2 64794  69.9996 212.6712 0003728 265.3110  94.7623 14.98336516 53262
STARLINK-34567          
1 64795U 25150F   26180.46410804  .00002160  00000+0  18872-3 0  9995
2 64795  69.9993 212.4650 0004264 267.3978  92.6693 14.98335299 53260
STARLINK-34646          
1 64796U 25150G   26180.50602887  .00003793  00000+0  32552-3 0  9999
2 64796  69.9994 212.6058 0003768 264.3563  95.7167 14.98330013 54159
STARLINK-34641          
1 64797U 25150H   26180.48498293  .00000797  00000+0  74628-4 0  9993
2 64797  69.9998 212.5352 0003224 264.8555  95.2237 14.98323124 54094
STARLINK-34649          
1 64798U 25150J   26180.50586207  .00003518  00000+0  30249-3 0  9994
2 64798  69.9995 212.6125 0003962 268.4641  91.6064 14.98327771 54153
STARLINK-34662          
1 64799U 25150K   26180.46427444  .00002866  00000+0  24787-3 0  9992
2 64799  69.9993 212.4676 0003872 267.4214  92.6502 14.98335129 53261
STARLINK-34660          
1 64800U 25150L   26180.48080581  .00001987  00000+0  17429-3 0  9992
2 64800  69.9998 212.5231 0004088 266.5265  93.5426 14.98334020 53267
STARLINK-34604          
1 64801U 25150M   26180.49333024  .00002879  00000+0  24896-3 0  9994
2 64801  69.9998 212.5649 0003554 269.5763  90.4988 14.98335425 53263
STARLINK-34658          
1 64802U 25150N   26180.51837369  .00002619  00000+0  22717-3 0  9991
2 64802  69.9993 212.6499 0003638 262.6244  97.4501 14.98336945 53260
STARLINK-34620          
1 64803U 25150P   26180.51853045 -.00001281  00000+0 -99552-4 0  9999
2 64803  69.9994 212.6494 0004007 270.4514  89.6185 14.98328251 53267
STARLINK-34633          
1 64804U 25150Q   26180.48931999  .00002601  00000+0  22565-3 0  9995
2 64804  69.9995 212.5472 0004090 266.1323  93.9368 14.98333752 53269
STARLINK-34624          
1 64805U 25150R   26180.51003672  .00001758  00000+0  15510-3 0  9992
2 64805  69.9992 212.6242 0003779 268.5035  91.5691 14.98322492 53264
STARLINK-34664          
1 64806U 25150S   26180.52670729  .00018215  00000+0  15292-2 0  9999
2 64806  69.9991 212.2792 0003640 272.5937  87.4805 14.98359085 53273
STARLINK-34663          
1 64807U 25150T   26180.49752067  .00005193  00000+0  44268-3 0  9999
2 64807  69.9997 212.5813 0004058 260.6542  99.4159 14.98329265 53262
STARLINK-34696          
1 64808U 25150U   26180.50167628  .00002923  00000+0  25258-3 0  9991
2 64808  69.9995 212.5928 0004224 267.0604  93.0071 14.98336328 53264
STARLINK-34675          
1 64809U 25150V   26180.48915493  .00002246  00000+0  19592-3 0  9992
2 64809  69.9998 212.5526 0004056 266.0657  94.0038 14.98334454 53264
STARLINK-34608          
1 64810U 25150W   26180.47245758  .00001843  00000+0  16220-3 0  9990
2 64810  69.9997 212.4942 0003873 270.2710  89.8006 14.98334462 53265
STARLINK-34669          
1 64811U 25150X   26180.46828987  .00003341  00000+0  28752-3 0  9999
2 64811  69.9993 212.4742 0003895 267.3979  92.6734 14.98346650 53260
STARLINK-34644          
1 64812U 25150Y   26180.51016608  .00004048  00000+0  34662-3 0  9997
2 64812  69.9989 212.5744 0004000 264.7847  95.2856 14.98353005 53269
STARLINK-34685          
1 64813U 25150Z   26180.52690492  .00004189  00000+0  35862-3 0  9997
2 64813  69.9993 212.6769 0003666 270.9131  89.1608 14.98328775 53268
STARLINK-34668          
1 64814U 25150AA  26180.47679625  .00001931  00000+0  16957-3 0  9993
2 64814  69.9994 212.5015 0004059 268.4984  91.5710 14.98334325 53256
