OBJECT_NAME,OBJECT_ID,EPOCH,MEAN_MOTION,ECCENTRICITY,INCLINATION,RA_OF_ASC_NODE,ARG_OF_PERICENTER,MEAN_ANOMALY,EPHEMERIS_TYPE,CLASSIFICATION_TYPE,NORAD_CAT_ID,ELEMENT_SET_NO,REV_AT_EPOCH,BSTAR,MEAN_MOTION_DOT,MEAN_MOTION_DDOT
STARLINK-34585,2025-147AA,2026-06-28T22:11:12.554304,15.34401278,.00012655,53.1599,84.5622,87.2577,272.8570,0,U,64779,999,5575,.90183258E-3,.30218E-3,0
STARLINK-34491,2025-147AB,2026-06-28T22:47:26.723040,15.34385709,.0000945,53.1590,84.0068,91.9525,268.1586,0,U,64780,999,5581,.69435902E-3,.23146E-3,0
STARLINK-34582,2025-147AC,2026-06-28T22:38:20.884128,15.34421847,.00010394,53.1592,83.9662,85.2281,274.8840,0,U,64781,999,5574,.116485E-2,.39213E-3,0
STARLINK-34482,2025-147AD,2026-06-28T22:02:07.384992,15.34390353,.00013245,53.1606,84.5211,98.3626,261.7527,0,U,64782,999,5584,.7042868E-3,.23486E-3,0
DROR 1,2025-148A,2026-06-29T08:58:18.269184,1.00272193,.000266,0.0172,4.4162,36.4064,7.1902,0,U,64784,999,341,0,-.23E-6,0
STARLINK-34629,2025-150A,2026-06-29T12:56:42.292896,14.98340020,.0003977,69.9993,212.3308,270.9417,89.1287,0,U,64790,999,5327,.23691E-3,.2736E-4,0
STARLINK-34697,2025-150B,2026-06-29T11:26:21.592320,14.98321398,.0004118,69.9994,212.5072,266.8252,93.2436,0,U,64791,999,5326,.2912E-3,.3383E-4,0
STARLINK-34632,2025-150C,2026-06-29T12:02:38.455008,14.98335110,.0004146,69.9996,212.4767,266.8470,93.2215,0,U,64792,999,5326,.20833E-3,.2394E-4,0
STARLINK-34693,2025-150D,2026-06-29T12:32:42.309888,14.98337350,.0003888,69.9995,212.6647,264.8186,95.2530,0,U,64793,999,5326,.30561E-3,.3556E-4,0
STARLINK-34666,2025-150E,2026-06-29T12:32:28.103136,14.98336516,.0003728,69.9996,212.6712,265.3110,94.7623,0,U,64794,999,5326,.22396E-3,.2581E-4,0
STARLINK-34567,2025-150F,2026-06-29T11:08:18.934656,14.98335299,.0004264,69.9993,212.4650,267.3978,92.6693,0,U,64795,999,5326,.18872E-3,.216E-4,0
STARLINK-34646,2025-150G,2026-06-29T12:08:40.894368,14.98330013,.0003768,69.9994,212.6058,264.3563,95.7167,0,U,64796,999,5415,.32552E-3,.3793E-4,0
STARLINK-34641,2025-150H,2026-06-29T11:38:22.525152,14.98323124,.0003224,69.9998,212.5352,264.8555,95.2237,0,U,64797,999,5409,.74628E-4,.797E-5,0
STARLINK-34649,2025-150J,2026-06-29T12:08:26.482848,14.98327771,.0003962,69.9995,212.6125,268.4641,91.6064,0,U,64798,999,5415,.30249E-3,.3518E-4,0
STARLINK-34662,2025-150K,2026-06-29T11:08:33.311616,14.98335129,.0003872,69.9993,212.4676,267.4214,92.6502,0,U,64799,999,5326,.24787E-3,.2866E-4,0
STARLINK-34660,2025-150L,2026-06-29T11:32:21.621984,14.98334020,.0004088,69.9998,212.5231,266.5265,93.5426,0,U,64800,999,5326,.17429E-3,.1987E-4,0
STARLINK-34604,2025-150M,2026-06-29T11:50:23.732736,14.98335425,.0003554,69.9998,212.5649,269.5763,90.4988,0,U,64801,999,5326,.24896E-3,.2879E-4,0
STARLINK-34658,2025-150N,2026-06-29T12:26:27.486816,14.98336945,.0003638,69.9993,212.6499,262.6244,97.4501,0,U,64802,999,5326,.22717E-3,.2619E-4,0
STARLINK-34620,2025-150P,2026-06-29T12:26:41.030880,14.98328251,.0004007,69.9994,212.6494,270.4514,89.6185,0,U,64803,999,5326,-.99552E-4,-.1281E-4,0
STARLINK-34633,2025-150Q,2026-06-29T11:44:37.247136,14.98333752,.000409,69.9995,212.5472,266.1323,93.9368,0,U,64804,999,5326,.22565E-3,.2601E-4,0
STARLINK-34624,2025-150R,2026-06-29T12:14:27.172608,14.98322492,.0003779,69.9992,212.6242,268.5035,91.5691,0,U,64805,999,5326,.1551E-3,.1758E-4,0
STARLINK-34664,2025-150S,2026-06-29T12:38:27.509856,14.98359085,.000364,69.9991,212.2792,272.5937,87.4805,0,U,64806,999,5327,.15292E-2,.18215E-3,0
STARLINK-34663,2025-150T,2026-06-29T11:56:25.785888,14.98329265,.0004058,69.9997,212.5813,260.6542,99.4159,0,U,64807,999,5326,.44268E-3,.5193E-4,0
STARLINK-34696,2025-150U,2026-06-29T12:02:24.830592,14.98336328,.0004224,69.9995,212.5928,267.0604,93.0071,0,U,64808,999,5326,.25258E-3,.2923E-4,0
STARLINK-34675,2025-150V,2026-06-29T11:44:22.985952,14.98334454,.0004056,69.9998,212.5526,266.0657,94.0038,0,U,64809,999,5326,.19592E-3,.2246E-4,0
STARLINK-34608,2025-150W,2026-06-29T11:20:20.334912,14.98334462,.0003873,69.9997,212.4942,270.2710,89.8006,0,U,64810,999,5326,.1622E-3,.1843E-4,0
STARLINK-34669,2025-150X,2026-06-29T11:14:20.244768,14.98346650,.0003895,69.9993,212.4742,267.3979,92.6734,0,U,64811,999,5326,.28752E-3,.3341E-4,0
STARLINK-34644,2025-150Y,2026-06-29T12:14:38.349312,14.98353005,.0004,69.9989,212.5744,264.7847,95.2856,0,U,64812,999,5326,.34662E-3,.4048E-4,0
STARLINK-34685,2025-150Z,2026-06-29T12:38:44.585088,14.98328775,.0003666,69.9993,212.6769,270.9131,89.1608,0,U,64813,999,5326,.35862E-3,.4189E-4,0
STARLINK-34668,2025-150AA,2026-06-29T11:26:35.196000,14.98334325,.0004059,69.9994,212.5015,268.4984,91.5710,0,U,64814,999,5325,.16957E-3,.1931E-4,0
